[{"OBJECT_NAME":"GAOFEN-9 01","OBJECT_ID":"2015-047A","EPOCH":"2026-03-14T14:06:57.641760","MEAN_MOTION":14.82695469,"ECCENTRICITY":0.00289718,"INCLINATION":97.6405,"RA_OF_ASC_NODE":113.5351,"ARG_OF_PERICENTER":90.6399,"MEAN_ANOMALY":269.8135,"EPHEMERIS_TYPE":0,"CLASSIFICATION_TYPE":"U","NORAD_CAT_ID":40894,"ELEMENT_SET_NO":999,"REV_AT_EPOCH":56617,"BSTAR":0.00016630479,"MEAN_MOTION_DOT":1.3e-5,"MEAN_MOTION_DDOT":0},{"OBJECT_NAME":"YAOGAN-28","OBJECT_ID":"2015-064A","EPOCH":"2026-03-14T14:51:08.466336","MEAN_MOTION":15.26095834,"ECCENTRICITY":0.00115601,"INCLINATION":97.2903,"RA_OF_ASC_NODE":213.981,"ARG_OF_PERICENTER":159.7208,"MEAN_ANOMALY":200.4492,"EPHEMERIS_TYPE":0,"CLASSIFICATION_TYPE":"U","NORAD_CAT_ID":41026,"ELEMENT_SET_NO":999,"REV_AT_EPOCH":57625,"BSTAR":0.00040832119,"MEAN_MOTION_DOT":0.00010483,"MEAN_MOTION_DDOT":0},{"OBJECT_NAME":"YAOGAN-29","OBJECT_ID":"2015-069A","EPOCH":"2026-03-14T14:02:23.109216","MEAN_MOTION":14.83003629,"ECCENTRICITY":0.00016717,"INCLINATION":98.0145,"RA_OF_ASC_NODE":102.028,"ARG_OF_PERICENTER":28.4811,"MEAN_ANOMALY":331.6493,"EPHEMERIS_TYPE":0,"CLASSIFICATION_TYPE":"U","NORAD_CAT_ID":41038,"ELEMENT_SET_NO":999,"REV_AT_EPOCH":55660,"BSTAR":0.00012234057,"MEAN_MOTION_DOT":9.4e-6,"MEAN_MOTION_DDOT":0},{"OBJECT_NAME":"KENT RIDGE 1","OBJECT_ID":"2015-077B","EPOCH":"2026-03-14T02:59:30.742368","MEAN_MOTION":15.2249318,"ECCENTRICITY":0.00085464,"INCLINATION":14.9791,"RA_OF_ASC_NODE":252.636,"ARG_OF_PERICENTER":338.8859,"MEAN_ANOMALY":21.111,"EPHEMERIS_TYPE":0,"CLASSIFICATION_TYPE":"U","NORAD_CAT_ID":41167,"ELEMENT_SET_NO":999,"REV_AT_EPOCH":56658,"BSTAR":0.0001871134,"MEAN_MOTION_DOT":5.232e-5,"MEAN_MOTION_DDOT":0},{"OBJECT_NAME":"GAOFEN-4","OBJECT_ID":"2015-083A","EPOCH":"2026-03-13T12:28:23.064096","MEAN_MOTION":1.00269807,"ECCENTRICITY":0.00039265,"INCLINATION":0.4018,"RA_OF_ASC_NODE":83.7567,"ARG_OF_PERICENTER":77.9435,"MEAN_ANOMALY":302.2136,"EPHEMERIS_TYPE":0,"CLASSIFICATION_TYPE":"U","NORAD_CAT_ID":41194,"ELEMENT_SET_NO":999,"REV_AT_EPOCH":3757,"BSTAR":0,"MEAN_MOTION_DOT":-3.34e-6,"MEAN_MOTION_DDOT":0},{"OBJECT_NAME":"JASON-3","OBJECT_ID":"2016-002A","EPOCH":"2026-03-14T15:12:32.419584","MEAN_MOTION":12.87626474,"ECCENTRICITY":0.0007716,"INCLINATION":66.0437,"RA_OF_ASC_NODE":324.628,"ARG_OF_PERICENTER":277.107,"MEAN_ANOMALY":82.9071,"EPHEMERIS_TYPE":0,"CLASSIFICATION_TYPE":"U","NORAD_CAT_ID":41240,"ELEMENT_SET_NO":999,"REV_AT_EPOCH":47507,"BSTAR":0.00019064747,"MEAN_MOTION_DOT":-1.4e-7,"MEAN_MOTION_DDOT":0},{"OBJECT_NAME":"SENTINEL-3A","OBJECT_ID":"2016-011A","EPOCH":"2026-03-14T14:40:15.859488","MEAN_MOTION":14.2673596,"ECCENTRICITY":0.00012545,"INCLINATION":98.6219,"RA_OF_ASC_NODE":142.3259,"ARG_OF_PERICENTER":96.4065,"MEAN_ANOMALY":263.7259,"EPHEMERIS_TYPE":0,"CLASSIFICATION_TYPE":"U","NORAD_CAT_ID":41335,"ELEMENT_SET_NO":999,"REV_AT_EPOCH":52457,"BSTAR":7.1331306e-5,"MEAN_MOTION_DOT":1.29e-6,"MEAN_MOTION_DDOT":0},{"OBJECT_NAME":"ZIYUAN 3-02 (ZY 3-02)","OBJECT_ID":"2016-033A","EPOCH":"2026-03-14T14:33:28.806624","MEAN_MOTION":15.2163481,"ECCENTRICITY":0.00108996,"INCLINATION":97.3897,"RA_OF_ASC_NODE":151.1739,"ARG_OF_PERICENTER":279.1032,"MEAN_ANOMALY":80.897,"EPHEMERIS_TYPE":0,"CLASSIFICATION_TYPE":"U","NORAD_CAT_ID":41556,"ELEMENT_SET_NO":999,"REV_AT_EPOCH":54360,"BSTAR":0.00039622092,"MEAN_MOTION_DOT":8.898e-5,"MEAN_MOTION_DDOT":0},{"OBJECT_NAME":"CARTOSAT-2C","OBJECT_ID":"2016-040A","EPOCH":"2026-03-14T14:40:17.950368","MEAN_MOTION":15.19282746,"ECCENTRICITY":0.00106237,"INCLINATION":97.4603,"RA_OF_ASC_NODE":134.8357,"ARG_OF_PERICENTER":105.8077,"MEAN_ANOMALY":254.433,"EPHEMERIS_TYPE":0,"CLASSIFICATION_TYPE":"U","NORAD_CAT_ID":41599,"ELEMENT_SET_NO":999,"REV_AT_EPOCH":53935,"BSTAR":0.00040236145,"MEAN_MOTION_DOT":8.435e-5,"MEAN_MOTION_DDOT":0},{"OBJECT_NAME":"SKYSAT-C1","OBJECT_ID":"2016-040C","EPOCH":"2026-03-14T12:37:45.846912","MEAN_MOTION":15.34623748,"ECCENTRICITY":0.00031547,"INCLINATION":96.9698,"RA_OF_ASC_NODE":110.4281,"ARG_OF_PERICENTER":43.4148,"MEAN_ANOMALY":316.7344,"EPHEMERIS_TYPE":0,"CLASSIFICATION_TYPE":"U","NORAD_CAT_ID":41601,"ELEMENT_SET_NO":999,"REV_AT_EPOCH":54334,"BSTAR":0.00040321275,"MEAN_MOTION_DOT":0.00013465,"MEAN_MOTION_DDOT":0},{"OBJECT_NAME":"LAPAN-A3","OBJECT_ID":"2016-040E","EPOCH":"2026-03-14T14:18:07.449120","MEAN_MOTION":15.32434802,"ECCENTRICITY":0.0010421,"INCLINATION":97.1483,"RA_OF_ASC_NODE":72.9028,"ARG_OF_PERICENTER":6.14,"MEAN_ANOMALY":353.9968,"EPHEMERIS_TYPE":0,"CLASSIFICATION_TYPE":"U","NORAD_CAT_ID":41603,"ELEMENT_SET_NO":999,"REV_AT_EPOCH":54032,"BSTAR":0.00015866818,"MEAN_MOTION_DOT":4.901e-5,"MEAN_MOTION_DDOT":0},{"OBJECT_NAME":"GAOFEN-3","OBJECT_ID":"2016-049A","EPOCH":"2026-03-14T14:11:30.477408","MEAN_MOTION":14.42217431,"ECCENTRICITY":0.00017097,"INCLINATION":98.4057,"RA_OF_ASC_NODE":82.7922,"ARG_OF_PERICENTER":86.0694,"MEAN_ANOMALY":274.0691,"EPHEMERIS_TYPE":0,"CLASSIFICATION_TYPE":"U","NORAD_CAT_ID":41727,"ELEMENT_SET_NO":999,"REV_AT_EPOCH":50501,"BSTAR":2.9968953e-5,"MEAN_MOTION_DOT":5.5e-7,"MEAN_MOTION_DDOT":0},{"OBJECT_NAME":"SKYSAT-C4","OBJECT_ID":"2016-058B","EPOCH":"2026-03-14T13:49:49.304640","MEAN_MOTION":15.45566489,"ECCENTRICITY":0.0001269,"INCLINATION":96.9288,"RA_OF_ASC_NODE":99.4611,"ARG_OF_PERICENTER":131.7607,"MEAN_ANOMALY":228.3752,"EPHEMERIS_TYPE":0,"CLASSIFICATION_TYPE":"U","NORAD_CAT_ID":41771,"ELEMENT_SET_NO":999,"REV_AT_EPOCH":53084,"BSTAR":0.00046836754,"MEAN_MOTION_DOT":0.00022462,"MEAN_MOTION_DDOT":0},{"OBJECT_NAME":"SKYSAT-C5","OBJECT_ID":"2016-058C","EPOCH":"2026-03-14T14:04:56.771616","MEAN_MOTION":15.34105983,"ECCENTRICITY":3.716e-5,"INCLINATION":97.0612,"RA_OF_ASC_NODE":118.4402,"ARG_OF_PERICENTER":96.6128,"MEAN_ANOMALY":263.5158,"EPHEMERIS_TYPE":0,"CLASSIFICATION_TYPE":"U","NORAD_CAT_ID":41772,"ELEMENT_SET_NO":999,"REV_AT_EPOCH":52924,"BSTAR":0.00035255195,"MEAN_MOTION_DOT":0.00011567,"MEAN_MOTION_DDOT":0},{"OBJECT_NAME":"SKYSAT-C2","OBJECT_ID":"2016-058D","EPOCH":"2026-03-14T13:58:34.548384","MEAN_MOTION":15.39848661,"ECCENTRICITY":0.00046724,"INCLINATION":97.0277,"RA_OF_ASC_NODE":99.3386,"ARG_OF_PERICENTER":57.6603,"MEAN_ANOMALY":302.5096,"EPHEMERIS_TYPE":0,"CLASSIFICATION_TYPE":"U","NORAD_CAT_ID":41773,"ELEMENT_SET_NO":999,"REV_AT_EPOCH":53048,"BSTAR":0.00043269437,"MEAN_MOTION_DOT":0.00017122,"MEAN_MOTION_DDOT":0},{"OBJECT_NAME":"SKYSAT-C3","OBJECT_ID":"2016-058E","EPOCH":"2026-03-14T14:22:13.977696","MEAN_MOTION":15.48568039,"ECCENTRICITY":0.00017528,"INCLINATION":96.9177,"RA_OF_ASC_NODE":108.2625,"ARG_OF_PERICENTER":113.2146,"MEAN_ANOMALY":246.929,"EPHEMERIS_TYPE":0,"CLASSIFICATION_TYPE":"U","NORAD_CAT_ID":41774,"ELEMENT_SET_NO":999,"REV_AT_EPOCH":53145,"BSTAR":0.00053780961,"MEAN_MOTION_DOT":0.00028643,"MEAN_MOTION_DDOT":0},{"OBJECT_NAME":"ALSAT-1B","OBJECT_ID":"2016-059C","EPOCH":"2026-03-14T13:33:21.471840","MEAN_MOTION":14.72193958,"ECCENTRICITY":0.0009493,"INCLINATION":97.7807,"RA_OF_ASC_NODE":86.4009,"ARG_OF_PERICENTER":161.9456,"MEAN_ANOMALY":198.2091,"EPHEMERIS_TYPE":0,"CLASSIFICATION_TYPE":"U","NORAD_CAT_ID":41785,"ELEMENT_SET_NO":999,"REV_AT_EPOCH":50665,"BSTAR":9.0327091e-5,"MEAN_MOTION_DOT":5.23e-6,"MEAN_MOTION_DDOT":0}]
