GAOFEN-9 01             
1 40894U 15047A   26073.58816715  .00001300  00000+0  16630-3 0  9993
2 40894  97.6405 113.5351 0028971  90.6399 269.8135 14.82695469566173
YAOGAN-28               
1 41026U 15064A   26073.61884799  .00010483  00000+0  40832-3 0  9994
2 41026  97.2903 213.9810 0011560 159.7208 200.4492 15.26095834576253
YAOGAN-29               
1 41038U 15069A   26073.58498969  .00000940  00000+0  12234-3 0  9990
2 41038  98.0145 102.0280 0001671  28.4811 331.6493 14.83003629556604
KENT RIDGE 1            
1 41167U 15077B   26073.12466137  .00005232  00000+0  18711-3 0  9999
2 41167  14.9791 252.6360 0008546 338.8859  21.1110 15.22493180566584
GAOFEN-4                
1 41194U 15083A   26072.51971139 -.00000334  00000+0  00000+0 0  9998
2 41194   0.4018  83.7567 0003926  77.9435 302.2136  1.00269807 37577
JASON-3                 
1 41240U 16002A   26073.63370856 -.00000014  00000+0  19065-3 0  9995
2 41240  66.0437 324.6280 0007716 277.1070  82.9071 12.87626474475076
SENTINEL-3A             
1 41335U 16011A   26073.61129467  .00000129  00000+0  71331-4 0  9999
2 41335  98.6219 142.3259 0001254  96.4065 263.7259 14.26735960524571
ZIYUAN 3-02 (ZY 3-02)   
1 41556U 16033A   26073.60658341  .00008898  00000+0  39622-3 0  9992
2 41556  97.3897 151.1739 0010899 279.1032  80.8970 15.21634810543605
CARTOSAT-2C             
1 41599U 16040A   26073.61131887  .00008435  00000+0  40236-3 0  9999
2 41599  97.4603 134.8357 0010623 105.8077 254.4330 15.19282746539351
SKYSAT-C1               
1 41601U 16040C   26073.52622508  .00013465  00000+0  40321-3 0  9992
2 41601  96.9698 110.4281 0003154  43.4148 316.7344 15.34623748543345
LAPAN-A3                
1 41603U 16040E   26073.59591955  .00004901  00000+0  15867-3 0  9994
2 41603  97.1483  72.9028 0010421   6.1400 353.9968 15.32434802540324
GAOFEN-3                
1 41727U 16049A   26073.59132497  .00000055  00000+0  29969-4 0  9997
2 41727  98.4057  82.7922 0001709  86.0694 274.0691 14.42217431505015
SKYSAT-C4               
1 41771U 16058B   26073.57626510  .00022462  00000+0  46837-3 0  9996
2 41771  96.9288  99.4611 0001269 131.7607 228.3752 15.45566489530849
SKYSAT-C5               
1 41772U 16058C   26073.58676819  .00011567  00000+0  35255-3 0  9991
2 41772  97.0612 118.4402 0000371  96.6128 263.5158 15.34105983529242
SKYSAT-C2               
1 41773U 16058D   26073.58234431  .00017122  00000+0  43269-3 0  9999
2 41773  97.0277  99.3386 0004672  57.6603 302.5096 15.39848661530486
SKYSAT-C3               
1 41774U 16058E   26073.59877289  .00028643  00000+0  53781-3 0  9995
2 41774  96.9177 108.2625 0001752 113.2146 246.9290 15.48568039531450
ALSAT-1B                
1 41785U 16059C   26073.56483185  .00000523  00000+0  90327-4 0  9998
2 41785  97.7807  86.4009 0009493 161.9456 198.2091 14.72193958506650
